     2              NAVIGATION DATA                         RINEX VERSION / TYPE
CCRINEXN V1.6.0 UX  CDDIS               09-FEB-17 10:49     PGM / RUN BY / DATE 
IGS BROADCAST EPHEMERIS FILE                                COMMENT             
    0.8382D-08 -0.7451D-08 -0.5960D-07  0.5960D-07          ION ALPHA           
    0.8806D+05 -0.3277D+05 -0.1966D+06  0.1966D+06          ION BETA            
   -0.558793544769D-08-0.177635683940D-13   589824     1935 DELTA-UTC: A0,A1,T,W
    18                                                      LEAP SECONDS        
                                                            END OF HEADER       
15 17  2  9 13 59 44.0-0.342794228345D-03-0.102318153950D-11 0.000000000000D+00
    0.470000000000D+02-0.153125000000D+01 0.593417575367D-08 0.966095918847D+00
    0.212341547012D-06 0.906081264839D-02 0.420399010181D-05 0.515373307991D+04
    0.395984000000D+06 0.111758708954D-07 0.150722323063D+01 0.987201929092D-07
    0.929075312470D+00 0.280906250000D+03 0.570569108665D+00-0.888465579586D-08
   -0.183936233111D-09 0.100000000000D+01 0.193500000000D+04 0.000000000000D+00
    0.200000000000D+01 0.000000000000D+00-0.107102096081D-07 0.470000000000D+02
    0.388800000000D+06 0.400000000000D+01 0.000000000000D+00 0.000000000000D+00
28 17  2  9 13 59 44.0 0.588512513787D-03 0.295585778076D-11 0.000000000000D+00
    0.500000000000D+02 0.155156250000D+03 0.356157692540D-08 0.265382094998D+01
    0.788085162640D-05 0.199784711003D-01 0.743195414543D-05 0.515364691353D+04
    0.395984000000D+06 0.193715095520D-06-0.253347511478D+01-0.122934579849D-06
    0.989153724097D+00 0.244062500000D+03-0.157579201648D+01-0.744959601986D-08
    0.311441544219D-09 0.100000000000D+01 0.193500000000D+04 0.000000000000D+00
    0.200000000000D+01 0.000000000000D+00-0.111758708954D-07 0.500000000000D+02
    0.388800000000D+06 0.400000000000D+01 0.000000000000D+00 0.000000000000D+00
 1 17  2  9 14  0  0.0 0.488515943289D-04 0.909494701773D-12 0.000000000000D+00
    0.820000000000D+02-0.142468750000D+03 0.424767693279D-08-0.336128422858D+00
   -0.734068453312D-05 0.621902605053D-02 0.104121863842D-04 0.515370163155D+04
    0.396000000000D+06 0.838190317154D-07-0.512713835126D+00 0.819563865662D-07
    0.966795181986D+00 0.182750000000D+03 0.542476188082D+00-0.802247702551D-08
   -0.166435504135D-09 0.100000000000D+01 0.193500000000D+04 0.000000000000D+00
    0.200000000000D+01 0.000000000000D+00 0.512227416039D-08 0.820000000000D+02
    0.391122000000D+06 0.400000000000D+01 0.000000000000D+00 0.000000000000D+00
 2 17  2  9 14  0  0.0 0.478839036077D-03-0.670752342558D-11 0.000000000000D+00
    0.390000000000D+02-0.120781250000D+03 0.485091634585D-08 0.698089336966D-01
   -0.639632344246D-05 0.166050321422D-01 0.898540019989D-05 0.515373296738D+04
    0.396000000000D+06-0.197440385819D-06-0.563780784030D+00 0.219792127609D-06
    0.945640125524D+00 0.203531250000D+03-0.202429113859D+01-0.846785272006D-08
   -0.158578033983D-09 0.100000000000D+01 0.193500000000D+04 0.000000000000D+00
    0.200000000000D+01 0.000000000000D+00-0.204890966415D-07 0.390000000000D+02
    0.388800000000D+06 0.400000000000D+01 0.000000000000D+00 0.000000000000D+00
 3 17  2  9 14  0  0.0-0.107295345515D-03-0.341060513165D-12 0.000000000000D+00
    0.840000000000D+02 0.178125000000D+02 0.464162191361D-08-0.132161852756D+01
    0.964850187302D-06 0.488210702315D-03 0.107288360596D-04 0.515380427551D+04
    0.396000000000D+06 0.298023223877D-07 0.528893549625D+00 0.260770320892D-07
    0.959938689757D+00 0.174656250000D+03 0.469397708550D+00-0.795425989828D-08
    0.719315676671D-09 0.100000000000D+01 0.193500000000D+04 0.000000000000D+00
    0.200000000000D+01 0.000000000000D+00 0.186264514923D-08 0.840000000000D+02
    0.388800000000D+06 0.000000000000D+00 0.000000000000D+00 0.000000000000D+00
 4 17  2  9 14  0  0.0-0.260165426880D-03 0.341060513165D-12 0.000000000000D+00
    0.170000000000D+02 0.146468750000D+03 0.503663836763D-08 0.294234143375D+01
    0.751018524170D-05 0.882092118263D-02 0.776164233684D-05 0.515372993851D+04
    0.396000000000D+06 0.106170773506D-06-0.258815589705D+01-0.335276126862D-07
    0.982738083694D+00 0.242562500000D+03 0.873093293829D+00-0.771389274317D-08
    0.384301721995D-09 0.100000000000D+01 0.193500000000D+04 0.000000000000D+00
    0.200000000000D+01 0.630000000000D+02-0.195577740669D-07 0.170000000000D+02
    0.388800000000D+06 0.400000000000D+01 0.000000000000D+00 0.000000000000D+00
 5 17  2  9 14  0  0.0-0.615702010691D-04 0.204636307899D-11 0.000000000000D+00
    0.340000000000D+02 0.192187500000D+02 0.488341769966D-08 0.260378883421D+01
    0.101327896118D-05 0.491387816146D-02 0.103972852230D-04 0.515368419647D+04
    0.396000000000D+06-0.763684511185D-07 0.513508688258D+00-0.111758708954D-06
    0.946937050678D+00 0.172468750000D+03 0.558761155148D+00-0.799497587998D-08
    0.633240662730D-09 0.100000000000D+01 0.193500000000D+04 0.000000000000D+00
    0.200000000000D+01 0.000000000000D+00-0.107102096081D-07 0.340000000000D+02
    0.388800000000D+06 0.400000000000D+01 0.000000000000D+00 0.000000000000D+00
 6 17  2  9 14  0  0.0 0.310318544507D-03 0.500222085975D-11 0.000000000000D+00
    0.740000000000D+02-0.128437500000D+03 0.423267630796D-08-0.365328109725D-01
   -0.683404505253D-05 0.636875163764D-03 0.948458909988D-05 0.515362112999D+04
    0.396000000000D+06-0.242143869400D-07-0.521099824299D+00-0.223517417908D-07
    0.966579629784D+00 0.198437500000D+03-0.134748652237D+01-0.792461580634D-08
   -0.135362781260D-09 0.100000000000D+01 0.193500000000D+04 0.000000000000D+00
    0.200000000000D+01 0.000000000000D+00 0.419095158577D-08 0.740000000000D+02
    0.388800000000D+06 0.400000000000D+01 0.000000000000D+00 0.000000000000D+00
 7 17  2  9 14  0  0.0 0.384335871786D-03-0.375166564481D-11 0.000000000000D+00
    0.490000000000D+02 0.762500000000D+01 0.424624830186D-08-0.952359501367D+00
    0.260770320892D-06 0.101314675994D-01 0.122319906950D-04 0.515360907555D+04
    0.396000000000D+06 0.258907675743D-06 0.264500505892D+01-0.558793544769D-08
    0.963603258584D+00 0.144843750000D+03-0.261606295389D+01-0.780818238499D-08
   -0.708600944645D-09 0.100000000000D+01 0.193500000000D+04 0.000000000000D+00
    0.200000000000D+01 0.000000000000D+00-0.111758708954D-07 0.490000000000D+02
    0.388800000000D+06 0.400000000000D+01 0.000000000000D+00 0.000000000000D+00
 8 17  2  9 14  0  0.0-0.489512458444D-04-0.136424205266D-11 0.000000000000D+00
    0.680000000000D+02-0.240937500000D+02 0.478948521557D-08 0.247182174018D+01
   -0.122934579849D-05 0.249745533802D-02-0.745058059692D-08 0.515358493424D+04
    0.396000000000D+06 0.167638063431D-07-0.157542790788D+01 0.242143869400D-07
    0.965458306002D+00 0.381250000000D+03-0.873493197115D+00-0.860785855186D-08
   -0.471448209139D-10 0.100000000000D+01 0.193500000000D+04 0.000000000000D+00
    0.200000000000D+01 0.000000000000D+00 0.465661287308D-08 0.680000000000D+02
    0.388800000000D+06 0.400000000000D+01 0.000000000000D+00 0.000000000000D+00
 9 17  2  9 14  0  0.0 0.300263054669D-03 0.750333128963D-11 0.000000000000D+00
    0.560000000000D+02-0.496875000000D+01 0.525629037416D-08 0.198171777064D+01
   -0.352039933205D-06 0.912146526389D-03 0.438094139099D-05 0.515368180847D+04
    0.396000000000D+06-0.316649675369D-07 0.156621118897D+01-0.298023223877D-07
    0.953408827636D+00 0.287375000000D+03 0.175994219716D+01-0.841249327126D-08
   -0.173221501085D-09 0.100000000000D+01 0.193500000000D+04 0.000000000000D+00
    0.200000000000D+01 0.000000000000D+00 0.139698386192D-08 0.560000000000D+02
    0.388800000000D+06 0.400000000000D+01 0.000000000000D+00 0.000000000000D+00
10 17  2  9 14  0  0.0-0.107231084257D-03 0.352429196937D-11 0.000000000000D+00
    0.620000000000D+02 0.259375000000D+02 0.458304804520D-08-0.242249626651D+01
    0.128895044327D-05 0.219822779763D-02 0.106655061245D-04 0.515367631531D+04
    0.396000000000D+06-0.130385160446D-07 0.525105939147D+00 0.558793544769D-08
    0.960130193048D+00 0.176062500000D+03-0.289673731646D+01-0.792854454142D-08
    0.691814531138D-09 0.100000000000D+01 0.193500000000D+04 0.000000000000D+00
    0.200000000000D+01 0.000000000000D+00 0.232830643654D-08 0.620000000000D+02
    0.390768000000D+06 0.400000000000D+01 0.000000000000D+00 0.000000000000D+00
11 17  2  9 14  0  0.0-0.669152941555D-03-0.170530256582D-11 0.000000000000D+00
    0.420000000000D+02-0.146750000000D+03 0.612311219506D-08-0.929113317619D+00
   -0.747479498386D-05 0.166298988042D-01 0.547617673874D-05 0.515370092201D+04
    0.396000000000D+06-0.236555933952D-06-0.907748930747D+00 0.137835741043D-06
    0.899601106100D+00 0.244812500000D+03 0.161686723637D+01-0.928860119324D-08
   -0.235366946835D-09 0.100000000000D+01 0.193500000000D+04 0.000000000000D+00
    0.200000000000D+01 0.000000000000D+00-0.121071934700D-07 0.420000000000D+02
    0.388836000000D+06 0.400000000000D+01 0.000000000000D+00 0.000000000000D+00
12 17  2  9 14  0  0.0 0.388285145164D-03-0.341060513165D-12 0.000000000000D+00
    0.750000000000D+02 0.124250000000D+03 0.369872549533D-08-0.154999059323D+01
    0.649131834507D-05 0.638794805855D-02 0.735558569431D-05 0.515359099388D+04
    0.396000000000D+06 0.121071934700D-06-0.255697758861D+01-0.521540641785D-07
    0.989915816641D+00 0.253531250000D+03 0.790181677301D+00-0.773175062988D-08
    0.313227332890D-09 0.000000000000D+00 0.193500000000D+04 0.000000000000D+00
    0.200000000000D+01 0.000000000000D+00-0.121071934700D-07 0.750000000000D+02
    0.388800000000D+06 0.400000000000D+01 0.000000000000D+00 0.000000000000D+00
